start=new Date('2022-01-20T00:00:00.000Z').valueOf();
sats=[{"MEAN_MOTION_DOT":"0.00001768","OBJECT_ID":"2021-038AK","REV_AT_EPOCH":"3960","MEAN_MOTION_DDOT":"0.0000000000000","PERIOD":"95.593","CENTER_NAME":"EARTH","LAUNCH_DATE":"2021-05-04","CLASSIFICATION_TYPE":"U","MEAN_ELEMENT_THEORY":"SGP4","NORAD_CAT_ID":"48386","MEAN_MOTION":"15.06380114","DECAY_DATE":null,"APOAPSIS":"548.474","TLE_LINE1":"1 48386U 21038AK  22019.44567611  .00001768  00000-0  13766-3 0  9999","MEAN_ANOMALY":"299.2114","OBJECT_NAME":"STARLINK-2606","EPHEMERIS_TYPE":"0","RA_OF_ASC_NODE":"286.3772","GP_ID":"194193465","SEMIMAJOR_AXIS":"6925.410","BSTAR":"0.00013766000000","COUNTRY_CODE":"US","INCLINATION":"53.0549","ECCENTRICITY":"0.00017320","TIME_SYSTEM":"UTC","FILE":"3277432","SITE":"AFETR","TLE_LINE2":"2 48386  53.0549 286.3772 0001732  60.9048 299.2114 15.06380114 39607","PERIAPSIS":"546.075","ARG_OF_PERICENTER":"60.9048","REF_FRAME":"TEME","ELEMENT_SET_NO":"999","OBJECT_TYPE":"PAYLOAD","EPOCH":"2022-01-19T10:41:46.415904","RCS_SIZE":"LARGE"},{"APOAPSIS":"548.498","TLE_LINE1":"1 48387U 21038AL  22019.67793210  .00015202  00000-0  10358-2 0  9992","OBJECT_NAME":"STARLINK-2600","MEAN_ANOMALY":"306.9609","MEAN_MOTION":"15.06451312","DECAY_DATE":null,"NORAD_CAT_ID":"48387","LAUNCH_DATE":"2021-05-04","CLASSIFICATION_TYPE":"U","MEAN_ELEMENT_THEORY":"SGP4","MEAN_MOTION_DDOT":"0.0000000000000","PERIOD":"95.589","CENTER_NAME":"EARTH","OBJECT_ID":"2021-038AL","REV_AT_EPOCH":"4023","MEAN_MOTION_DOT":"0.00015202","RCS_SIZE":"LARGE","OBJECT_TYPE":"PAYLOAD","EPOCH":"2022-01-19T16:16:13.333440","REF_FRAME":"TEME","ELEMENT_SET_NO":"999","TLE_LINE2":"2 48387  53.0539 285.3331 0002082  53.1571 306.9609 15.06451312 40236","PERIAPSIS":"545.614","SITE":"AFETR","ARG_OF_PERICENTER":"53.1571","FILE":"3277721","TIME_SYSTEM":"UTC","ECCENTRICITY":"0.00020820","INCLINATION":"53.0539","COUNTRY_CODE":"US","SEMIMAJOR_AXIS":"6925.191","BSTAR":"0.00103580000000","GP_ID":"194197951","RA_OF_ASC_NODE":"285.3331","EPHEMERIS_TYPE":"0"},{"OBJECT_ID":"2021-038AM","REV_AT_EPOCH":"3961","MEAN_MOTION_DOT":"0.00003358","APOAPSIS":"548.444","TLE_LINE1":"1 48388U 21038AM  22019.47241194  .00003358  00000-0  24428-3 0  9993","MEAN_ANOMALY":"293.9214","OBJECT_NAME":"STARLINK-2594","MEAN_MOTION":"15.06392349","DECAY_DATE":null,"NORAD_CAT_ID":"48388","LAUNCH_DATE":"2021-05-04","CLASSIFICATION_TYPE":"U","MEAN_ELEMENT_THEORY":"SGP4","MEAN_MOTION_DDOT":"0.0000000000000","CENTER_NAME":"EARTH","PERIOD":"95.593","ECCENTRICITY":"0.00017430","INCLINATION":"53.0557","COUNTRY_CODE":"US","SEMIMAJOR_AXIS":"6925.372","BSTAR":"0.00024428000000","RA_OF_ASC_NODE":"286.2401","GP_ID":"194191964","EPHEMERIS_TYPE":"0","RCS_SIZE":"MEDIUM","OBJECT_TYPE":"PAYLOAD","EPOCH":"2022-01-19T11:20:16.391616","REF_FRAME":"TEME","ELEMENT_SET_NO":"999","TLE_LINE2":"2 48388  53.0557 286.2401 0001743  66.1958 293.9214 15.06392349 39612","PERIAPSIS":"546.030","SITE":"AFETR","ARG_OF_PERICENTER":"66.1958","FILE":"3277432","TIME_SYSTEM":"UTC"},{"RA_OF_ASC_NODE":"281.2953","GP_ID":"194193215","SEMIMAJOR_AXIS":"6925.415","BSTAR":"0.00011323000000","EPHEMERIS_TYPE":"0","ECCENTRICITY":"0.00018620","COUNTRY_CODE":"US","INCLINATION":"53.0560","PERIAPSIS":"545.991","TLE_LINE2":"2 48389  53.0560 281.2953 0001862  60.8071 299.3104 15.06378170 39673","SITE":"AFETR","ARG_OF_PERICENTER":"60.8071","TIME_SYSTEM":"UTC","FILE":"3277432","OBJECT_TYPE":"PAYLOAD","EPOCH":"2022-01-19T11:02:22.874208","RCS_SIZE":"LARGE","REF_FRAME":"TEME","ELEMENT_SET_NO":"999","MEAN_MOTION_DOT":"0.00001404","OBJECT_ID":"2021-038AN","REV_AT_EPOCH":"3967","LAUNCH_DATE":"2021-05-04","CLASSIFICATION_TYPE":"U","MEAN_ELEMENT_THEORY":"SGP4","MEAN_MOTION_DDOT":"0.0000000000000","PERIOD":"95.594","CENTER_NAME":"EARTH","APOAPSIS":"548.570","MEAN_ANOMALY":"299.3104","TLE_LINE1":"1 48389U 21038AN  22019.45998697  .00001404  00000-0  11323-3 0  9999","OBJECT_NAME":"STARLINK-1904","NORAD_CAT_ID":"48389","MEAN_MOTION":"15.06378170","DECAY_DATE":null},{"ARG_OF_PERICENTER":"57.6048","PERIAPSIS":"546.101","TLE_LINE2":"2 48390  53.0561 279.8343 0001686  57.6048 302.5104 15.06382136 40311","SITE":"AFETR","FILE":"3277722","TIME_SYSTEM":"UTC","RCS_SIZE":"LARGE","EPOCH":"2022-01-19T18:54:46.042560","OBJECT_TYPE":"PAYLOAD","ELEMENT_SET_NO":"999","REF_FRAME":"TEME","BSTAR":"0.00029461000000","SEMIMAJOR_AXIS":"6925.403","GP_ID":"194198380","RA_OF_ASC_NODE":"279.8343","EPHEMERIS_TYPE":"0","ECCENTRICITY":"0.00016860","INCLINATION":"53.0561","COUNTRY_CODE":"US","MEAN_ELEMENT_THEORY":"SGP4","LAUNCH_DATE":"2021-05-04","CLASSIFICATION_TYPE":"U","PERIOD":"95.593","CENTER_NAME":"EARTH","MEAN_MOTION_DDOT":"0.0000000000000","MEAN_ANOMALY":"302.5104","TLE_LINE1":"1 48390U 21038AP  22019.78803290  .00004107  00000-0  29461-3 0  9996","OBJECT_NAME":"STARLINK-2586","APOAPSIS":"548.436","DECAY_DATE":null,"MEAN_MOTION":"15.06382136","NORAD_CAT_ID":"48390","REV_AT_EPOCH":"4031","OBJECT_ID":"2021-038AP","MEAN_MOTION_DOT":"0.00004107"},{"OBJECT_TYPE":"PAYLOAD","EPOCH":"2022-01-19T10:51:45.854784","RCS_SIZE":"LARGE","REF_FRAME":"TEME","ELEMENT_SET_NO":"999","TLE_LINE2":"2 48391  53.0558 281.3360 0001659  57.8974 302.2176 15.06381025 40890","PERIAPSIS":"546.123","SITE":"AFETR","ARG_OF_PERICENTER":"57.8974","TIME_SYSTEM":"UTC","FILE":"3277432","ECCENTRICITY":"0.00016590","COUNTRY_CODE":"US","INCLINATION":"53.0558","RA_OF_ASC_NODE":"281.3360","GP_ID":"194192214","SEMIMAJOR_AXIS":"6925.407","BSTAR":"0.00020951000000","EPHEMERIS_TYPE":"0","APOAPSIS":"548.421","MEAN_ANOMALY":"302.2176","TLE_LINE1":"1 48391U 21038AQ  22019.45261406  .00002839  00000-0  20951-3 0  9993","OBJECT_NAME":"STARLINK-2607","NORAD_CAT_ID":"48391","MEAN_MOTION":"15.06381025","DECAY_DATE":null,"CLASSIFICATION_TYPE":"U","LAUNCH_DATE":"2021-05-04","MEAN_ELEMENT_THEORY":"SGP4","MEAN_MOTION_DDOT":"0.0000000000000","PERIOD":"95.593","CENTER_NAME":"EARTH","MEAN_MOTION_DOT":"0.00002839","OBJECT_ID":"2021-038AQ","REV_AT_EPOCH":"4089"},{"RCS_SIZE":"LARGE","OBJECT_TYPE":"PAYLOAD","EPOCH":"2022-01-19T10:46:27.384384","REF_FRAME":"TEME","ELEMENT_SET_NO":"999","PERIAPSIS":"546.024","TLE_LINE2":"2 48392  53.0560 281.3513 0001802  64.1773 295.9402 15.06380989 40890","SITE":"AFETR","ARG_OF_PERICENTER":"64.1773","FILE":"3277432","TIME_SYSTEM":"UTC","ECCENTRICITY":"0.00018020","INCLINATION":"53.0560","COUNTRY_CODE":"US","SEMIMAJOR_AXIS":"6925.407","BSTAR":"0.00017589000000","RA_OF_ASC_NODE":"281.3513","GP_ID":"194192464","EPHEMERIS_TYPE":"0","APOAPSIS":"548.520","TLE_LINE1":"1 48392U 21038AR  22019.44892806  .00002338  00000-0  17589-3 0  9994","MEAN_ANOMALY":"295.9402","OBJECT_NAME":"STARLINK-2605","MEAN_MOTION":"15.06380989","DECAY_DATE":null,"NORAD_CAT_ID":"48392","CLASSIFICATION_TYPE":"U","LAUNCH_DATE":"2021-05-04","MEAN_ELEMENT_THEORY":"SGP4","MEAN_MOTION_DDOT":"0.0000000000000","PERIOD":"95.593","CENTER_NAME":"EARTH","OBJECT_ID":"2021-038AR","REV_AT_EPOCH":"4089","MEAN_MOTION_DOT":"0.00002338"},{"MEAN_MOTION":"15.06399078","DECAY_DATE":null,"NORAD_CAT_ID":"48393","APOAPSIS":"548.471","TLE_LINE1":"1 48393U 21038AS  22019.44522934  .00006019  00000-0  42263-3 0  9994","MEAN_ANOMALY":"294.7334","OBJECT_NAME":"STARLINK-2602","MEAN_MOTION_DDOT":"0.0000000000000","PERIOD":"95.592","CENTER_NAME":"EARTH","CLASSIFICATION_TYPE":"U","LAUNCH_DATE":"2021-05-04","MEAN_ELEMENT_THEORY":"SGP4","OBJECT_ID":"2021-038AS","REV_AT_EPOCH":"4026","MEAN_MOTION_DOT":"0.00006019","REF_FRAME":"TEME","ELEMENT_SET_NO":"999","RCS_SIZE":"LARGE","OBJECT_TYPE":"PAYLOAD","EPOCH":"2022-01-19T10:41:07.814976","FILE":"3277724","TIME_SYSTEM":"UTC","SITE":"AFETR","TLE_LINE2":"2 48393  53.0560 281.3785 0001812  65.3844 294.7334 15.06399078 40266","PERIAPSIS":"545.962","ARG_OF_PERICENTER":"65.3844","INCLINATION":"53.0560","COUNTRY_CODE":"US","ECCENTRICITY":"0.00018120","EPHEMERIS_TYPE":"0","SEMIMAJOR_AXIS":"6925.351","BSTAR":"0.00042263000000","GP_ID":"194198407","RA_OF_ASC_NODE":"281.3785"},{"ECCENTRICITY":"0.00018710","INCLINATION":"53.0543","COUNTRY_CODE":"US","BSTAR":"0.00079247000000","SEMIMAJOR_AXIS":"6925.349","RA_OF_ASC_NODE":"281.3806","GP_ID":"194198412","EPHEMERIS_TYPE":"0","RCS_SIZE":"LARGE","EPOCH":"2022-01-19T10:35:49.989120","OBJECT_TYPE":"PAYLOAD","ELEMENT_SET_NO":"999","REF_FRAME":"TEME","ARG_OF_PERICENTER":"58.4609","SITE":"AFETR","TLE_LINE2":"2 48394  53.0543 281.3806 0001871  58.4609 301.6563 15.06400014 40264","PERIAPSIS":"545.918","FILE":"3277724","TIME_SYSTEM":"UTC","REV_AT_EPOCH":"4026","OBJECT_ID":"2021-038AT","MEAN_MOTION_DOT":"0.00011542","MEAN_ANOMALY":"301.6563","TLE_LINE1":"1 48394U 21038AT  22019.44155080  .00011542  00000-0  79247-3 0  9998","OBJECT_NAME":"STARLINK-2573","APOAPSIS":"548.509","DECAY_DATE":null,"MEAN_MOTION":"15.06400014","NORAD_CAT_ID":"48394","MEAN_ELEMENT_THEORY":"SGP4","CLASSIFICATION_TYPE":"U","LAUNCH_DATE":"2021-05-04","PERIOD":"95.592","CENTER_NAME":"EARTH","MEAN_MOTION_DDOT":"0.0000000000000"},{"TLE_LINE1":"1 48395U 21038AU  22019.42586953  .00006077  00000-0  42671-3 0  9992","MEAN_ANOMALY":"304.3235","OBJECT_NAME":"STARLINK-2574","APOAPSIS":"548.598","DECAY_DATE":null,"MEAN_MOTION":"15.06384732","NORAD_CAT_ID":"48395","MEAN_ELEMENT_THEORY":"SGP4","CLASSIFICATION_TYPE":"U","LAUNCH_DATE":"2021-05-04","PERIOD":"95.593","CENTER_NAME":"EARTH","MEAN_MOTION_DDOT":"0.0000000000000","REV_AT_EPOCH":"4089","OBJECT_ID":"2021-038AU","MEAN_MOTION_DOT":"0.00006077","RCS_SIZE":"LARGE","EPOCH":"2022-01-19T10:13:15.127392","OBJECT_TYPE":"PAYLOAD","ELEMENT_SET_NO":"999","REF_FRAME":"TEME","ARG_OF_PERICENTER":"55.7937","TLE_LINE2":"2 48395  53.0546 281.4508 0001931  55.7937 304.3235 15.06384732 40892","PERIAPSIS":"545.923","SITE":"AFETR","FILE":"3277432","TIME_SYSTEM":"UTC","ECCENTRICITY":"0.00019310","INCLINATION":"53.0546","COUNTRY_CODE":"US","BSTAR":"0.00042671000000","SEMIMAJOR_AXIS":"6925.395","GP_ID":"194191715","RA_OF_ASC_NODE":"281.4508","EPHEMERIS_TYPE":"0"}];
